FENGYUN 1C DEB          
1 29907U 99025HD  26199.13928427  .00000906  00000+0  49810-3 0  9994
2 29907  99.0981 274.1572 0080882   0.6262  59.5962 14.12696318996679
FENGYUN 1C DEB          
1 29909U 99025HF  26199.27737483  .00003566  00000+0  75859-3 0  9998
2 29909  98.6413 316.1207 0037356  70.8036 319.6950 14.59256371 15754
FENGYUN 1C DEB          
1 29911U 99025HH  26199.11942845  .00000719  00000+0  36138-3 0  9998
2 29911  98.6937 243.3654 0024786 244.2033 181.7870 14.19460127  5134
FENGYUN 1C DEB          
1 29912U 99025HJ  26198.87173374  .00002028  00000+0  58272-3 0  9992
2 29912  98.7411 307.2781 0037908 290.0583 190.3465 14.45581559 11723
FENGYUN 1C DEB          
1 29913U 99025HK  26198.98117878  .00000172  00000+0  12482-3 0  9993
2 29913  98.7941 197.0441 0063262  20.8233   4.7573 14.07607207   119
FENGYUN 1C DEB          
1 29914U 99025HL  26199.05239208 -.00000157  00000+0 -72769-4 0  9995
2 29914  98.8220 226.2563 0034361 227.4997 159.4622 14.03223696998347
FENGYUN 1C DEB          
1 29916U 99025HN  26199.28774218  .00000244  00000+0  31126-3 0  9993
2 29916  99.1830 209.4675 0272794  62.2236  53.9937 13.57241325964035
FENGYUN 1C DEB          
1 29917U 99025HP  26199.31896399  .00000669  00000+0  66850-3 0  9996
2 29917  98.8586  49.4022 0222050 269.9491 272.5662 13.70930672971113
FENGYUN 1C DEB          
1 29918U 99025HQ  26199.20739306  .00001678  00000+0  60174-3 0  9993
2 29918  98.8474 291.8083 0013641  48.5411 341.6326 14.35246546  9127
FENGYUN 1C DEB          
1 29919U 99025HR  26198.88729675  .00000075  00000+0  91900-4 0  9997
2 29919  98.5126 338.0345 0138729 109.1248  14.4205 13.85229582985412
FENGYUN 1C DEB          
1 29920U 99025HS  26197.54475142  .00000604  00000+0  37694-3 0  9995
2 29920  98.3766  40.5359 0125874  29.6883 331.1354 14.04320307993164
FENGYUN 1C DEB          
1 29921U 99025HT  26199.01389867  .00000300  00000+0  20387-3 0  9992
2 29921  98.7862 203.9603 0045429 176.3888 251.3437 14.06899111999319
FENGYUN 1C DEB          
1 29922U 99025HU  26199.08975849  .00000313  00000+0  23862-3 0  9996
2 29922  99.1055 260.3450 0094443 129.1906 231.7693 13.98692383994798
FENGYUN 1C DEB          
1 29923U 99025HV  26198.94596042  .00000368  00000+0  21491-3 0  9991
2 29923  98.6850 206.2181 0015799 272.9286 116.6097 14.14285452  3436
FENGYUN 1C DEB          
1 29924U 99025HW  26198.96896139  .00000114  00000+0  90260-4 0  9994
2 29924  98.7267 210.1509 0027042   6.5764  22.9847 14.08948271  2680
FENGYUN 1C DEB          
1 29926U 99025HY  26198.94999292  .00000604  00000+0  16656-3 0  9998
2 29926  98.3003 184.1330 0248103  12.0905  11.9600 14.33866381 16926
FENGYUN 1C DEB          
1 29927U 99025HZ  26199.10695984  .00008750  00000+0  10889-2 0  9990
2 29927  99.0673 255.6818 0014740 242.8700 147.4830 14.82730780 18599
FENGYUN 1C DEB          
1 29928U 99025JA  26199.07454277  .00000337  00000+0  29685-3 0  9993
2 29928  99.5639 233.9860 0141034 244.1645 142.4012 13.88399308985078
FENGYUN 1C DEB          
1 29929U 99025JB  26199.23432289  .00000784  00000+0  50029-3 0  9993
2 29929  98.6245 111.8525 0130293 288.8693 224.8893 14.02313867990034
FENGYUN 1C DEB          
1 29930U 99025JC  26199.15932478  .00000170  00000+0  86996-4 0  9993
2 29930  99.0192  91.3071 0163594 151.4959   9.9988 14.21054826  9777
FENGYUN 1C DEB          
1 29931U 99025JD  26199.05613455 -.00000098  00000+0 -34558-4 0  9992
2 29931  98.8331 233.5829 0031226 204.1582 185.3125 14.04006150998626
FENGYUN 1C DEB          
1 29932U 99025JE  26199.31137535  .00000219  00000+0  12933-3 0  9997
2 29932  98.6288 208.6060 0037766 162.7222 213.7513 14.17016609  6105
FENGYUN 1C DEB          
1 29933U 99025JF  26199.30267527  .00006461  00000+0  99521-3 0  9995
2 29933  98.7525 323.1850 0004319  44.4830 345.4859 14.73815049 17015
FENGYUN 1C DEB          
1 29934U 99025JG  26199.16255480  .00001059  00000+0  19294-3 0  9992
2 29934  98.8783 268.4115 0097696 303.2398  55.9468 14.65554823 29522
FENGYUN 1C DEB          
1 29935U 99025JH  26199.12399655  .00000042  00000+0  39472-4 0  9994
2 29935  98.4309 254.5661 0149607 311.3810  75.2544 14.14329688  6151
FENGYUN 1C DEB          
1 29936U 99025JJ  26199.32723449  .00000139  00000+0  60778-4 0  9999
2 29936  98.6761 318.6493 0112476 263.6041  95.2326 14.35509060 20535
FENGYUN 1C DEB          
1 29937U 99025JK  26199.06813878  .00000309  00000+0  21955-3 0  9999
2 29937  98.7867 218.2417 0032871 130.1781 296.2315 14.04400213999862
FENGYUN 1C DEB          
1 29938U 99025JL  26198.95169876 -.00000079  00000+0 -21501-4 0  9993
2 29938  98.8171 188.6302 0034624  59.3248 355.6941 14.07569127  1102
FENGYUN 1C DEB          
1 29939U 99025JM  26198.94973428 -.00000009  00000+0  18377-4 0  9998
2 29939  98.7159 197.4858 0065184 241.1231 137.8998 14.12131767  5242
FENGYUN 1C DEB          
1 29940U 99025JN  26198.97838466  .00000435  00000+0  22133-3 0  9991
2 29940  98.6169 207.7627 0073118 192.0902 197.8880 14.19326407  5462
FENGYUN 1C DEB          
1 29942U 99025JQ  26199.18121766  .00000588  00000+0  23683-3 0  9995
2 29942  98.6156 268.2887 0048525 359.1325   0.9766 14.31120120  9772
FENGYUN 1C DEB          
1 29943U 99025JR  26198.97396589 -.00000033  00000+0  57398-5 0  9997
2 29943  98.7246 205.1204 0035131 334.9131  54.0333 14.09712070  3637
FENGYUN 1C DEB          
1 29944U 99025JS  26199.18980987  .00003060  00000+0  24591-3 0  9992
2 29944  99.0244 168.7086 0153541 257.2199 101.1820 14.92221518 36926
FENGYUN 1C DEB          
1 29945U 99025JT  26199.06283192  .00000282  00000+0  19830-3 0  9997
2 29945  98.7737 221.0043 0032046 109.9357 272.8127 14.05653987   325
FENGYUN 1C DEB          
1 29946U 99025JU  26198.92251861  .00000215  00000+0  14557-3 0  9997
2 29946  98.7921 190.5808 0082061  90.2457 300.1355 14.08426827   923
FENGYUN 1C DEB          
1 29947U 99025JV  26199.09744150  .00000420  00000+0  29480-3 0  9994
2 29947  98.8134 228.0845 0039135 232.7859 193.6432 14.03198290997989
FENGYUN 1C DEB          
1 29948U 99025JW  26199.21301021 -.00000028  00000+0  93713-5 0  9992
2 29948  98.8420 185.1899 0084254 344.5593  79.7296 14.06294363   336
FENGYUN 1C DEB          
1 29949U 99025JX  26198.97906649  .00000135  00000+0  10597-3 0  9997
2 29949  98.7517 212.7943 0025003  54.1849 325.2415 14.06862018  1628
FENGYUN 1C DEB          
1 29950U 99025JY  26199.03656420  .00000050  00000+0  51810-4 0  9996
2 29950  98.7169 228.7776 0032836 349.2646  40.2218 14.10424711  3546
FENGYUN 1C DEB          
1 29953U 99025KB  26198.95339924  .00000160  00000+0  15342-3 0  9997
2 29953  98.9549 182.9868 0107034  34.6709 348.8013 13.91032430988828
FENGYUN 1C DEB          
1 29954U 99025KC  26199.16148487  .00000836  00000+0  30356-3 0  9996
2 29954 100.1318 279.7108 0073054  17.9254 342.4478 14.35176637 13027
FENGYUN 1C DEB          
1 29955U 99025KD  26199.23864881  .00001734  00000+0  56584-3 0  9997
2 29955  99.2699 302.3635 0005755 350.4509  38.9679 14.40057522 11875
FENGYUN 1C DEB          
1 29956U 99025KE  26199.07008103  .00000128  00000+0  10189-3 0  9994
2 29956  98.7689 226.3673 0054423 125.0694 260.2725 14.06220305  1002
FENGYUN 1C DEB          
1 29957U 99025KF  26198.99233486  .00007042  00000+0  15219-2 0  9999
2 29957  98.9212 345.5206 0032943 232.6646 246.4375 14.58303128  6226
FENGYUN 1C DEB          
1 29958U 99025KG  26198.98779159  .00000140  00000+0  93100-4 0  9990
2 29958  98.6595 211.9505 0055946  71.6367 289.0880 14.14660822  5160
FENGYUN 1C DEB          
1 29959U 99025KH  26199.02934102  .00000188  00000+0  13924-3 0  9995
2 29959  98.7844 228.4675 0043281  77.5022 313.0311 14.06135455999947
FENGYUN 1C DEB          
1 29960U 99025KJ  26198.88546999  .00000332  00000+0  17947-3 0  9993
2 29960  98.6324 182.8425 0092129  23.0583   6.1489 14.16761216  5248
FENGYUN 1C DEB          
1 29961U 99025KK  26199.19243952  .00000147  00000+0  78026-4 0  9992
2 29961  98.9257  96.0316 0075486  36.2696 324.3567 14.26388670 14095
FENGYUN 1C DEB          
1 29962U 99025KL  26198.98300980 -.00000014  00000+0  16416-4 0  9993
2 29962  98.7657 205.7215 0109601 330.2926  60.8303 14.07294024   537
FENGYUN 1C DEB          
1 29963U 99025KM  26199.18126850  .00000661  00000+0  26994-3 0  9997
2 29963  98.9790  95.1261 0052240  30.9471 121.9866 14.30085487 12471
FENGYUN 1C DEB          
1 29964U 99025KN  26198.96495661  .00000697  00000+0  43705-3 0  9990
2 29964  98.3657  29.1562 0131054  15.0162 345.4840 14.03336573993637
FENGYUN 1C DEB          
1 29965U 99025KP  26199.00429900  .00000345  00000+0  25992-3 0  9998
2 29965  98.9735 193.0080 0144684 190.4890 242.9675 13.95888888993072
FENGYUN 1C DEB          
1 29966U 99025KQ  26199.13420831  .00000312  00000+0  15050-3 0  9995
2 29966  99.4702  68.8050 0040433  86.6824 273.8977 14.26108479 11412
FENGYUN 1C DEB          
1 29967U 99025KR  26199.20983197  .00001177  00000+0  50776-3 0  9997
2 29967  98.8563 282.6085 0074107  27.2787   0.8504 14.24978035  2863
FENGYUN 1C DEB          
1 29968U 99025KS  26199.22378150 -.00000089  00000+0 -26918-4 0  9992
2 29968  98.8195 188.6520 0091125 102.1051 279.8331 14.07391379  1057
FENGYUN 1C DEB          
1 29969U 99025KT  26199.24199347  .00001774  00000+0  62975-3 0  9996
2 29969  98.7658 291.6059 0044919 128.2176 258.1094 14.35148144  7614
FENGYUN 1C DEB          
1 29970U 99025KU  26199.30513434  .00000525  00000+0  15854-3 0  9999
2 29970  98.8214 140.5981 0088710 258.0702 256.6016 14.44721937 22616
FENGYUN 1C DEB          
1 29971U 99025KV  26199.08186159  .00000653  00000+0  33412-3 0  9997
2 29971  98.6578 238.9380 0020962 262.2270 125.6937 14.18845530  4192
FENGYUN 1C DEB          
1 29972U 99025KW  26199.06218625  .00002612  00000+0  44313-3 0  9999
2 29972  98.9061 235.3146 0062695  60.2487   7.8321 14.68933407 26726
FENGYUN 1C DEB          
1 29973U 99025KX  26198.98934473  .00000316  00000+0  21257-3 0  9997
2 29973  98.8466 199.7193 0056897 259.6729 156.6829 14.07005925997732
